start=new Date('2022-12-27T00:00:00.000Z').valueOf();
sats=[{"MEAN_MOTION":"15.01266375","NORAD_CAT_ID":"53226","MEAN_MOTION_DOT":"0.00001754","TIME_SYSTEM":"UTC","CENTER_NAME":"EARTH","SEMIMAJOR_AXIS":"6941.127","MEAN_ELEMENT_THEORY":"SGP4","CLASSIFICATION_TYPE":"U","REV_AT_EPOCH":"2394","OBJECT_NAME":"STARLINK-4359","APOAPSIS":"564.783","ARG_OF_PERICENTER":"27.5788","MEAN_MOTION_DDOT":"0.0000000000000","EPOCH":"2022-12-26T18:43:25.435200","OBJECT_TYPE":"PAYLOAD","PERIOD":"95.919","ECCENTRICITY":"0.00025800","TLE_LINE2":"2 53226  97.6586  59.3246 0002580  27.5788 332.5573 15.01266375 23944","REF_FRAME":"TEME","OBJECT_ID":"2022-084AP","TLE_LINE1":"1 53226U 22084AP  22360.78015550  .00001754  00000-0  14109-3 0  9993","MEAN_ANOMALY":"332.5573","FILE":"3723236","INCLINATION":"97.6586","DECAY_DATE":null,"RA_OF_ASC_NODE":"59.3246","ELEMENT_SET_NO":"999","BSTAR":"0.00014109000000","SITE":"AFWTR","GP_ID":"221526878","COUNTRY_CODE":"US","RCS_SIZE":"LARGE","EPHEMERIS_TYPE":"0","LAUNCH_DATE":"2022-07-22","PERIAPSIS":"561.201"},{"RA_OF_ASC_NODE":"59.3208","ELEMENT_SET_NO":"999","BSTAR":"0.00008024600000","SITE":"AFWTR","GP_ID":"221527084","COUNTRY_CODE":"US","RCS_SIZE":"LARGE","EPHEMERIS_TYPE":"0","PERIAPSIS":"561.416","LAUNCH_DATE":"2022-07-22","OBJECT_TYPE":"PAYLOAD","PERIOD":"95.918","ECCENTRICITY":"0.00022340","TLE_LINE2":"2 53227  97.6547  59.3208 0002234  28.5719 331.5627 15.01274722 23945","REF_FRAME":"TEME","OBJECT_ID":"2022-084AQ","TLE_LINE1":"1 53227U 22084AQ  22360.77275158  .00000972  00000-0  80246-4 0  9992","MEAN_ANOMALY":"331.5627","FILE":"3723236","INCLINATION":"97.6547","DECAY_DATE":null,"CLASSIFICATION_TYPE":"U","REV_AT_EPOCH":"2394","OBJECT_NAME":"STARLINK-4366","APOAPSIS":"564.517","ARG_OF_PERICENTER":"28.5719","MEAN_MOTION_DDOT":"0.0000000000000","EPOCH":"2022-12-26T18:32:45.736512","MEAN_MOTION":"15.01274722","NORAD_CAT_ID":"53227","MEAN_MOTION_DOT":"0.00000972","TIME_SYSTEM":"UTC","CENTER_NAME":"EARTH","SEMIMAJOR_AXIS":"6941.101","MEAN_ELEMENT_THEORY":"SGP4"},{"OBJECT_TYPE":"PAYLOAD","PERIOD":"95.919","TLE_LINE2":"2 53228  97.6571  59.3248 0002614  26.7873 333.3486 15.01260258 23942","ECCENTRICITY":"0.00026140","OBJECT_ID":"2022-084AR","REF_FRAME":"TEME","TLE_LINE1":"1 53228U 22084AR  22360.77806123  .00000907  00000-0  75181-4 0  9995","FILE":"3723236","MEAN_ANOMALY":"333.3486","INCLINATION":"97.6571","DECAY_DATE":null,"RA_OF_ASC_NODE":"59.3248","ELEMENT_SET_NO":"999","BSTAR":"0.00007518100000","SITE":"AFWTR","GP_ID":"221527704","COUNTRY_CODE":"US","RCS_SIZE":"LARGE","EPHEMERIS_TYPE":"0","PERIAPSIS":"561.197","LAUNCH_DATE":"2022-07-22","MEAN_MOTION":"15.01260258","NORAD_CAT_ID":"53228","TIME_SYSTEM":"UTC","MEAN_MOTION_DOT":"0.00000907","CENTER_NAME":"EARTH","SEMIMAJOR_AXIS":"6941.146","MEAN_ELEMENT_THEORY":"SGP4","CLASSIFICATION_TYPE":"U","REV_AT_EPOCH":"2394","OBJECT_NAME":"STARLINK-4365","APOAPSIS":"564.825","ARG_OF_PERICENTER":"26.7873","MEAN_MOTION_DDOT":"0.0000000000000","EPOCH":"2022-12-26T18:40:24.490272"},{"MEAN_ELEMENT_THEORY":"SGP4","SEMIMAJOR_AXIS":"6941.152","CENTER_NAME":"EARTH","TIME_SYSTEM":"UTC","MEAN_MOTION_DOT":"0.00000843","NORAD_CAT_ID":"53229","MEAN_MOTION":"15.01258440","EPOCH":"2022-12-26T18:32:24.773280","MEAN_MOTION_DDOT":"0.0000000000000","ARG_OF_PERICENTER":"30.6563","APOAPSIS":"564.190","OBJECT_NAME":"STARLINK-4367","REV_AT_EPOCH":"2394","CLASSIFICATION_TYPE":"U","DECAY_DATE":null,"INCLINATION":"97.6554","MEAN_ANOMALY":"329.4760","TLE_LINE1":"1 53229U 22084AS  22360.77250895  .00000843  00000-0  70183-4 0  9991","FILE":"3723236","REF_FRAME":"TEME","OBJECT_ID":"2022-084AS","ECCENTRICITY":"0.00016900","TLE_LINE2":"2 53229  97.6554  59.3180 0001690  30.6563 329.4760 15.01258440 23943","PERIOD":"95.920","OBJECT_TYPE":"PAYLOAD","LAUNCH_DATE":"2022-07-22","PERIAPSIS":"561.844","EPHEMERIS_TYPE":"0","RCS_SIZE":"LARGE","COUNTRY_CODE":"US","GP_ID":"221527498","SITE":"AFWTR","ELEMENT_SET_NO":"999","BSTAR":"0.00007018300000","RA_OF_ASC_NODE":"59.3180"},{"OBJECT_TYPE":"PAYLOAD","PERIOD":"95.919","FILE":"3723236","TLE_LINE1":"1 53230U 22084AT  22360.77435790  .00000567  00000-0  48689-4 0  9991","MEAN_ANOMALY":"331.5474","REF_FRAME":"TEME","OBJECT_ID":"2022-084AT","TLE_LINE2":"2 53230  97.6563  59.3214 0002377  28.5881 331.5474 15.01274307 23941","ECCENTRICITY":"0.00023770","DECAY_DATE":null,"INCLINATION":"97.6563","ELEMENT_SET_NO":"999","BSTAR":"0.00004868900000","RA_OF_ASC_NODE":"59.3214","SITE":"AFWTR","COUNTRY_CODE":"US","GP_ID":"221526466","LAUNCH_DATE":"2022-07-22","PERIAPSIS":"561.318","EPHEMERIS_TYPE":"0","RCS_SIZE":"LARGE","NORAD_CAT_ID":"53230","MEAN_MOTION":"15.01274307","CENTER_NAME":"EARTH","MEAN_MOTION_DOT":"0.00000567","TIME_SYSTEM":"UTC","MEAN_ELEMENT_THEORY":"SGP4","SEMIMAJOR_AXIS":"6941.103","REV_AT_EPOCH":"2394","CLASSIFICATION_TYPE":"U","OBJECT_NAME":"STARLINK-4364","MEAN_MOTION_DDOT":"0.0000000000000","ARG_OF_PERICENTER":"28.5881","APOAPSIS":"564.618","EPOCH":"2022-12-26T18:35:04.522560"},{"CLASSIFICATION_TYPE":"U","REV_AT_EPOCH":"2394","OBJECT_NAME":"STARLINK-4370","ARG_OF_PERICENTER":"39.4181","MEAN_MOTION_DDOT":"0.0000000000000","APOAPSIS":"564.539","EPOCH":"2022-12-26T18:27:04.657824","MEAN_MOTION":"15.01265678","NORAD_CAT_ID":"53231","CENTER_NAME":"EARTH","MEAN_MOTION_DOT":"-0.00000438","TIME_SYSTEM":"UTC","SEMIMAJOR_AXIS":"6941.129","MEAN_ELEMENT_THEORY":"SGP4","ELEMENT_SET_NO":"999","BSTAR":"-0.00002946800000","RA_OF_ASC_NODE":"59.3167","SITE":"AFWTR","COUNTRY_CODE":"US","GP_ID":"221526673","RCS_SIZE":"LARGE","EPHEMERIS_TYPE":"0","PERIAPSIS":"561.449","LAUNCH_DATE":"2022-07-22","OBJECT_TYPE":"PAYLOAD","PERIOD":"95.919","TLE_LINE1":"1 53231U 22084AU  22360.76880391 -.00000438  00000-0 -29468-4 0  9995","FILE":"3723236","MEAN_ANOMALY":"320.7205","TLE_LINE2":"2 53231  97.6564  59.3167 0002226  39.4181 320.7205 15.01265678 23940","ECCENTRICITY":"0.00022260","OBJECT_ID":"2022-084AU","REF_FRAME":"TEME","DECAY_DATE":null,"INCLINATION":"97.6564"},{"OBJECT_NAME":"STARLINK-4371","CLASSIFICATION_TYPE":"U","REV_AT_EPOCH":"2394","EPOCH":"2022-12-26T18:29:45.411072","ARG_OF_PERICENTER":"42.5584","MEAN_MOTION_DDOT":"0.0000000000000","APOAPSIS":"564.353","CENTER_NAME":"EARTH","TIME_SYSTEM":"UTC","MEAN_MOTION_DOT":"0.00000377","MEAN_MOTION":"15.01260086","NORAD_CAT_ID":"53232","SEMIMAJOR_AXIS":"6941.147","MEAN_ELEMENT_THEORY":"SGP4","SITE":"AFWTR","ELEMENT_SET_NO":"999","BSTAR":"0.00003390800000","RA_OF_ASC_NODE":"59.3193","EPHEMERIS_TYPE":"0","RCS_SIZE":"LARGE","PERIAPSIS":"561.670","LAUNCH_DATE":"2022-07-22","COUNTRY_CODE":"US","GP_ID":"221527292","PERIOD":"95.919","OBJECT_TYPE":"PAYLOAD","DECAY_DATE":null,"INCLINATION":"97.6537","TLE_LINE1":"1 53232U 22084AV  22360.77066448  .00000377  00000-0  33908-4 0  9990","MEAN_ANOMALY":"317.5790","FILE":"3723236","TLE_LINE2":"2 53232  97.6537  59.3193 0001933  42.5584 317.5790 15.01260086 23947","ECCENTRICITY":"0.00019330","OBJECT_ID":"2022-084AV","REF_FRAME":"TEME"},{"GP_ID":"221527911","COUNTRY_CODE":"US","EPHEMERIS_TYPE":"0","RCS_SIZE":"LARGE","LAUNCH_DATE":"2022-07-22","PERIAPSIS":"561.590","RA_OF_ASC_NODE":"59.2971","BSTAR":"0.00023256000000","ELEMENT_SET_NO":"999","SITE":"AFWTR","ECCENTRICITY":"0.00020600","TLE_LINE2":"2 53233  97.6548  59.2971 0002060  31.8586 328.2762 15.01257282 23940","REF_FRAME":"TEME","OBJECT_ID":"2022-084AW","TLE_LINE1":"1 53233U 22084AW  22360.76694613  .00002929  00000-0  23256-3 0  9990","FILE":"3723236","MEAN_ANOMALY":"328.2762","INCLINATION":"97.6548","DECAY_DATE":null,"OBJECT_TYPE":"PAYLOAD","PERIOD":"95.920","APOAPSIS":"564.450","ARG_OF_PERICENTER":"31.8586","MEAN_MOTION_DDOT":"0.0000000000000","EPOCH":"2022-12-26T18:24:24.145632","CLASSIFICATION_TYPE":"U","REV_AT_EPOCH":"2394","OBJECT_NAME":"STARLINK-4372","SEMIMAJOR_AXIS":"6941.155","MEAN_ELEMENT_THEORY":"SGP4","MEAN_MOTION":"15.01257282","NORAD_CAT_ID":"53233","TIME_SYSTEM":"UTC","MEAN_MOTION_DOT":"0.00002929","CENTER_NAME":"EARTH"},{"PERIOD":"95.919","OBJECT_TYPE":"PAYLOAD","DECAY_DATE":null,"INCLINATION":"97.6523","MEAN_ANOMALY":"291.2029","TLE_LINE1":"1 53234U 22084AX  22360.43208669  .00006559  00000-0  51466-3 0  9994","FILE":"3722937","ECCENTRICITY":"0.00016560","TLE_LINE2":"2 53234  97.6523  58.9726 0001656  68.9372 291.2029 15.01270352 24907","OBJECT_ID":"2022-084AX","REF_FRAME":"TEME","SITE":"AFWTR","ELEMENT_SET_NO":"999","BSTAR":"0.00051466000000","RA_OF_ASC_NODE":"58.9726","RCS_SIZE":"LARGE","EPHEMERIS_TYPE":"0","PERIAPSIS":"561.830","LAUNCH_DATE":"2022-07-22","COUNTRY_CODE":"US","GP_ID":"221493437","CENTER_NAME":"EARTH","TIME_SYSTEM":"UTC","MEAN_MOTION_DOT":"0.00006559","MEAN_MOTION":"15.01270352","NORAD_CAT_ID":"53234","MEAN_ELEMENT_THEORY":"SGP4","SEMIMAJOR_AXIS":"6941.115","OBJECT_NAME":"STARLINK-4368","CLASSIFICATION_TYPE":"U","REV_AT_EPOCH":"2490","EPOCH":"2022-12-26T10:22:12.290016","ARG_OF_PERICENTER":"68.9372","MEAN_MOTION_DDOT":"0.0000000000000","APOAPSIS":"564.129"},{"TIME_SYSTEM":"UTC","MEAN_MOTION_DOT":"0.00000230","CENTER_NAME":"EARTH","NORAD_CAT_ID":"53242","MEAN_MOTION":"15.08837937","MEAN_ELEMENT_THEORY":"SGP4","SEMIMAJOR_AXIS":"6917.887","OBJECT_NAME":"STARLINK-4056","REV_AT_EPOCH":"2485","CLASSIFICATION_TYPE":"U","EPOCH":"2022-12-26T19:58:30.169632","APOAPSIS":"541.446","MEAN_MOTION_DDOT":"0.0000000000000","ARG_OF_PERICENTER":"34.4575","PERIOD":"95.438","OBJECT_TYPE":"PAYLOAD","INCLINATION":"53.2168","DECAY_DATE":null,"OBJECT_ID":"2022-086A","REF_FRAME":"TEME","TLE_LINE2":"2 53242  53.2168  46.3412 0002449  34.4575 325.6576 15.08837937 24854","ECCENTRICITY":"0.00024490","TLE_LINE1":"1 53242U 22086A   22360.83229363  .00000230  00000-0  32566-4 0  9994","MEAN_ANOMALY":"325.6576","FILE":"3723236","SITE":"AFETR","RA_OF_ASC_NODE":"46.3412","ELEMENT_SET_NO":"999","BSTAR":"0.00003256600000","PERIAPSIS":"538.058","LAUNCH_DATE":"2022-07-24","RCS_SIZE":"LARGE","EPHEMERIS_TYPE":"0","GP_ID":"221527705","COUNTRY_CODE":"US"}];
